OBJECT_NAME,OBJECT_ID,EPOCH,MEAN_MOTION,ECCENTRICITY,INCLINATION,RA_OF_ASC_NODE,ARG_OF_PERICENTER,MEAN_ANOMALY,EPHEMERIS_TYPE,CLASSIFICATION_TYPE,NORAD_CAT_ID,ELEMENT_SET_NO,REV_AT_EPOCH,BSTAR,MEAN_MOTION_DOT,MEAN_MOTION_DDOT
STARLINK-32788,2025-003R,2026-06-10T14:39:31.233024,15.27593284,.00039158,43.0014,124.1169,264.4167,95.6238,0,U,62502,999,8076,.64816914E-3,.17626E-3,0
STARLINK-32768,2025-003S,2026-06-11T13:47:49.701984,15.27598233,.0001554,42.9937,118.4432,259.3164,100.7512,0,U,62503,999,8091,.88215E-3,.24106E-3,0
STARLINK-32792,2025-003T,2026-06-11T13:34:52.254048,15.27612111,.0002531,42.9895,118.3691,288.8697,71.1880,0,U,62504,999,8091,.82815E-3,.2262E-3,0
STARLINK-32725,2025-003U,2026-06-11T13:36:43.415424,15.27593637,.00018645,42.9936,118.3685,273.3774,86.6864,0,U,62505,999,8091,.71549643E-3,.19487E-3,0
STARLINK-32681,2025-003V,2026-06-11T03:27:03.738528,15.27589790,.00037673,42.9866,102.6446,264.8048,95.2374,0,U,62506,999,8117,.57243897E-3,.1553E-3,0
STARLINK-32679,2025-003W,2026-06-11T13:31:22.520640,15.27597707,.0002259,42.9964,119.1816,271.6878,88.3714,0,U,62507,999,8102,.98439E-3,.26941E-3,0
STARLINK-32749,2025-003X,2026-06-11T04:37:41.651616,15.27624121,.00011158,43.0018,120.7439,277.3892,82.6833,0,U,62508,999,8085,.95619151E-3,.26179E-3,0
STARLINK-32744,2025-003Y,2026-06-11T03:55:21.057024,15.27590219,.00027949,42.9962,121.3809,277.0911,82.9622,0,U,62509,999,8084,.6058837E-3,.16454E-3,0
STARLINK-32701,2025-003Z,2026-06-11T14:22:58.624032,15.27593859,.0003297,43.0060,118.6325,266.2610,93.7865,0,U,62510,999,8091,.62227E-3,.16909E-3,0
STARLINK-11452 [DTC],2025-004A,2026-06-11T00:00:02.000160,15.70882915,.00016348,43.0008,228.2581,269.6491,108.6519,0,U,62511,999,600,-.97345481E-3,-.123742E-2,0
STARLINK-11443 [DTC],2025-004B,2026-06-11T11:22:11.401248,15.70893927,.0001344,42.9995,225.8499,265.5339,94.5375,0,U,62512,999,8195,.9757E-3,.126964E-2,0
STARLINK-11440 [DTC],2025-004C,2026-06-11T10:59:15.197856,15.70841861,.0001447,43.0018,225.7244,271.7434,88.3268,0,U,62513,999,8195,.11189E-2,.145681E-2,0
STARLINK-11514 [DTC],2025-004D,2026-06-11T22:00:01.999584,15.70950366,.00013093,43.0011,222.6698,266.4371,286.7947,0,U,62514,999,603,-.17366672E-2,-.218543E-2,0
STARLINK-11508 [DTC],2025-004E,2026-06-11T07:17:54.337632,15.70875920,.0001107,42.9996,226.2765,297.4103,62.6652,0,U,62515,999,8193,.90745E-3,.117831E-2,0
STARLINK-11510 [DTC],2025-004F,2026-06-11T05:00:39.283200,15.70857123,.00021368,43.0014,227.2956,267.3850,92.6773,0,U,62516,999,8191,.10432486E-2,.135723E-2,0
STARLINK-11512 [DTC],2025-004G,2026-06-11T16:00:01.999584,15.70821795,.00015803,43.0005,223.8664,275.0371,68.1524,0,U,62517,999,599,.45194316E-3,.57903E-3,0
STARLINK-11450 [DTC],2025-004H,2026-06-11T10:43:57.774144,15.70969325,.0000962,42.9987,225.6384,266.7754,93.3003,0,U,62518,999,8195,.11197E-2,.146584E-2,0
STARLINK-11507 [DTC],2025-004J,2026-06-11T10:51:36.514944,15.70907094,.0000913,43.0013,225.6782,242.3934,117.6841,0,U,62519,999,8195,.10801E-2,.140909E-2,0
STARLINK-11482 [DTC],2025-004K,2026-06-10T11:12:19.125792,15.70778073,.00018335,43.0016,231.1710,258.9258,101.1403,0,U,62520,999,8180,.11927256E-2,.155079E-2,0
STARLINK-11528 [DTC],2025-004L,2026-06-11T11:14:32.245728,15.70845102,.0004079,43.0036,225.8004,290.5174,69.5256,0,U,62521,999,8195,-.67145E-3,-.85787E-3,0
STARLINK-11516 [DTC],2025-004M,2026-06-10T11:35:16.084320,15.70877730,.00011533,42.9995,231.2958,245.6992,114.3755,0,U,62522,999,8180,.90663932E-3,.117732E-2,0
STARLINK-11527 [DTC],2025-004N,2026-06-11T05:38:42.340992,15.70957417,.0003347,43.0004,226.6101,287.4254,72.6248,0,U,62523,999,8192,.11954E-2,.156652E-2,0
STARLINK-32748,2025-004P,2026-06-11T22:00:01.999584,15.27579259,.0001325,43.0038,47.5559,272.1387,9.3371,0,U,62524,999,581,-.25479142E-3,-.7266E-4,0
STARLINK-32777,2025-004Q,2026-06-11T09:10:33.436416,15.27595450,.0002425,42.9968,51.0934,84.8876,275.2252,0,U,62525,999,8078,.76344E-3,.20816E-3,0
STARLINK-32741,2025-004R,2026-06-11T08:54:35.669088,15.27590124,.0000479,43.0152,47.5543,180.7711,179.3140,0,U,62526,999,8082,.5493E-3,.14888E-3,0
STARLINK-32754,2025-004S,2026-06-10T23:10:26.683968,15.27602972,.00027891,43.0011,53.1258,276.5784,83.4750,0,U,62527,999,7977,.71172668E-3,.19389E-3,0
STARLINK-32786,2025-004T,2026-06-11T09:21:25.651008,15.27610284,.0004118,42.9972,50.2919,287.0559,72.9841,0,U,62528,999,7984,.82659E-3,.22578E-3,0
STARLINK-32789,2025-004U,2026-06-10T23:19:41.709792,15.27593017,.00023432,42.9994,53.1688,272.3729,87.6855,0,U,62529,999,8072,.68655844E-3,.18686E-3,0
STARLINK-32791,2025-004V,2026-06-11T09:58:24.926592,15.27612093,.0003405,43.0100,50.4806,271.7540,88.2922,0,U,62530,999,8079,.52573E-3,.14248E-3,0
STARLINK-32785,2025-004W,2026-06-10T23:30:48.125088,15.27588989,.00018858,43.0017,53.2363,263.0267,97.0370,0,U,62531,999,8072,.4474098E-3,.12073E-3,0
