STARLINK-32788          
1 62502U 25003R   26161.61077816  .00017626  00000+0  64817-3 0  9997
2 62502  43.0014 124.1169 0003915 264.4167  95.6238 15.27593284 80761
STARLINK-32768          
1 62503U 25003S   26162.57488081  .00024106  00000+0  88215-3 0  9993
2 62503  42.9937 118.4432 0001554 259.3164 100.7512 15.27598233 80919
STARLINK-32792          
1 62504U 25003T   26162.56588257  .00022620  00000+0  82815-3 0  9998
2 62504  42.9895 118.3691 0002531 288.8697  71.1880 15.27612111 80914
STARLINK-32725          
1 62505U 25003U   26162.56716916  .00019487  00000+0  71550-3 0  9995
2 62505  42.9936 118.3685 0001864 273.3774  86.6864 15.27593637 80911
STARLINK-32681          
1 62506U 25003V   26162.14379327  .00015530  00000+0  57244-3 0  9990
2 62506  42.9866 102.6446 0003767 264.8048  95.2374 15.27589790 81174
STARLINK-32679          
1 62507U 25003W   26162.56345510  .00026941  00000+0  98439-3 0  9993
2 62507  42.9964 119.1816 0002259 271.6878  88.3714 15.27597707 81022
STARLINK-32749          
1 62508U 25003X   26162.19284319  .00026179  00000+0  95619-3 0  9992
2 62508  43.0018 120.7439 0001115 277.3892  82.6833 15.27624121 80853
STARLINK-32744          
1 62509U 25003Y   26162.16343816  .00016454  00000+0  60588-3 0  9990
2 62509  42.9962 121.3809 0002794 277.0911  82.9622 15.27590219 80849
STARLINK-32701          
1 62510U 25003Z   26162.59928963  .00016909  00000+0  62227-3 0  9998
2 62510  43.0060 118.6325 0003297 266.2610  93.7865 15.27593859 80919
STARLINK-11452 [DTC]    
1 62511U 25004A   26162.00002315 -.00123742  00000+0 -97345-3 0  9995
2 62511  43.0008 228.2581 0001634 269.6491 108.6519 15.70882915  6003
STARLINK-11443 [DTC]    
1 62512U 25004B   26162.47374307  .00126964  00000+0  97570-3 0  9997
2 62512  42.9995 225.8499 0001344 265.5339  94.5375 15.70893927 81957
STARLINK-11440 [DTC]    
1 62513U 25004C   26162.45781479  .00145681  00000+0  11189-2 0  9996
2 62513  43.0018 225.7244 0001447 271.7434  88.3268 15.70841861 81954
STARLINK-11514 [DTC]    
1 62514U 25004D   26162.91668981 -.00218543  00000+0 -17367-2 0  9994
2 62514  43.0011 222.6698 0001309 266.4371 286.7947 15.70950366  6030
STARLINK-11508 [DTC]    
1 62515U 25004E   26162.30410113  .00117831  00000+0  90745-3 0  9998
2 62515  42.9996 226.2765 0001107 297.4103  62.6652 15.70875920 81937
STARLINK-11510 [DTC]    
1 62516U 25004F   26162.20878800  .00135723  00000+0  10432-2 0  9993
2 62516  43.0014 227.2956 0002136 267.3850  92.6773 15.70857123 81912
STARLINK-11512 [DTC]    
1 62517U 25004G   26162.66668981  .00057903  00000+0  45194-3 0  9998
2 62517  43.0005 223.8664 0001580 275.0371  68.1524 15.70821795  5999
STARLINK-11450 [DTC]    
1 62518U 25004H   26162.44719646  .00146584  00000+0  11197-2 0  9999
2 62518  42.9987 225.6384 0000962 266.7754  93.3003 15.70969325 81955
STARLINK-11507 [DTC]    
1 62519U 25004J   26162.45250596  .00140909  00000+0  10801-2 0  9991
2 62519  43.0013 225.6782 0000913 242.3934 117.6841 15.70907094 81951
STARLINK-11482 [DTC]    
1 62520U 25004K   26161.46688803  .00155079  00000+0  11927-2 0  9993
2 62520  43.0016 231.1710 0001833 258.9258 101.1403 15.70778073 81802
STARLINK-11528 [DTC]    
1 62521U 25004L   26162.46842877 -.00085787  00000+0 -67145-3 0  9992
2 62521  43.0036 225.8004 0004079 290.5174  69.5256 15.70845102 81952
STARLINK-11516 [DTC]    
1 62522U 25004M   26161.48282505  .00117732  00000+0  90664-3 0  9996
2 62522  42.9995 231.2958 0001153 245.6992 114.3755 15.70877730 81802
STARLINK-11527 [DTC]    
1 62523U 25004N   26162.23521228  .00156652  00000+0  11954-2 0  9997
2 62523  43.0004 226.6101 0003347 287.4254  72.6248 15.70957417 81923
STARLINK-32748          
1 62524U 25004P   26162.91668981 -.00007266  00000+0 -25479-3 0  9997
2 62524  43.0038  47.5559 0001325 272.1387   9.3371 15.27579259  5814
STARLINK-32777          
1 62525U 25004Q   26162.38233144  .00020816  00000+0  76344-3 0  9999
2 62525  42.9968  51.0934 0002425  84.8876 275.2252 15.27595450 80787
STARLINK-32741          
1 62526U 25004R   26162.37124617  .00014888  00000+0  54930-3 0  9992
2 62526  43.0152  47.5543 0000479 180.7711 179.3140 15.27590124 80820
STARLINK-32754          
1 62527U 25004S   26161.96558662  .00019389  00000+0  71173-3 0  9997
2 62527  43.0011  53.1258 0002789 276.5784  83.4750 15.27602972 79770
STARLINK-32786          
1 62528U 25004T   26162.38988022  .00022578  00000+0  82659-3 0  9997
2 62528  42.9972  50.2919 0004118 287.0559  72.9841 15.27610284 79849
STARLINK-32789          
1 62529U 25004U   26161.97201053  .00018686  00000+0  68656-3 0  9990
2 62529  42.9994  53.1688 0002343 272.3729  87.6855 15.27593017 80724
STARLINK-32791          
1 62530U 25004V   26162.41556628  .00014248  00000+0  52573-3 0  9994
2 62530  43.0100  50.4806 0003405 271.7540  88.2922 15.27612093 80798
STARLINK-32785          
1 62531U 25004W   26161.97972367  .00012073  00000+0  44741-3 0  9999
2 62531  43.0017  53.2363 0001885 263.0267  97.0370 15.27588989 80729
